{
  "type": "FeatureCollection",
  "features": [
    {
      "type": "Feature",
      "properties": {
        "norad_id": 34366,
        "name": "IRIDIUM 33 DEB",
        "group": "iridium-33-debris",
        "lat": 68.35350592003091,
        "lon": -145.8012025789735,
        "alt_km": 689.6750915160774,
        "timestamp": "2025-12-26T07:29:18.839329+00:00",
        "meta_object_name": "IRIDIUM 33 DEB",
        "meta_object_id": "1997-051FJ",
        "meta_epoch": "2025-12-25T13:24:52.713216",
        "meta_mean_motion": 14.5415312,
        "meta_eccentricity": 0.0023044,
        "meta_inclination": 86.3679,
        "meta_ra_of_asc_node": 43.7363,
        "meta_arg_of_pericenter": 99.9841,
        "meta_mean_anomaly": 31.4578,
        "meta_ephemeris_type": 0,
        "meta_classification_type": "U",
        "meta_norad_cat_id": 34366,
        "meta_element_set_no": 999,
        "meta_rev_at_epoch": 88368,
        "meta_bstar": 0.00092452,
        "meta_mean_motion_dot": 3.943e-05,
        "meta_mean_motion_ddot": 0,
        "tle_line1": "1 34366U 97051FJ  25359.55894344  .00003943  00000+0  92452-3 0  9993",
        "tle_line2": "2 34366  86.3679  43.7363 0023044  99.9841  31.4578 14.54153120883689"
      },
      "geometry": {
        "type": "Point",
        "coordinates": [
          -145.8012025789735,
          68.35350592003091
        ]
      }
    },
    {
      "type": "Feature",
      "properties": {
        "norad_id": 34375,
        "name": "IRIDIUM 33 DEB",
        "group": "iridium-33-debris",
        "lat": 64.17167339018,
        "lon": -175.36404143304898,
        "alt_km": 755.4515138155593,
        "timestamp": "2025-12-26T07:29:18.839340+00:00",
        "meta_object_name": "IRIDIUM 33 DEB",
        "meta_object_id": "1997-051FT",
        "meta_epoch": "2025-12-25T12:52:34.268736",
        "meta_mean_motion": 14.18014941,
        "meta_eccentricity": 0.0103685,
        "meta_inclination": 86.4324,
        "meta_ra_of_asc_node": 177.5431,
        "meta_arg_of_pericenter": 86.7144,
        "meta_mean_anomaly": 341.7037,
        "meta_ephemeris_type": 0,
        "meta_classification_type": "U",
        "meta_norad_cat_id": 34375,
        "meta_element_set_no": 999,
        "meta_rev_at_epoch": 86893,
        "meta_bstar": 0.00040149,
        "meta_mean_motion_dot": 8.86e-06,
        "meta_mean_motion_ddot": 0,
        "tle_line1": "1 34375U 97051FT  25359.53650774  .00000886  00000+0  40149-3 0  9997",
        "tle_line2": "2 34375  86.4324 177.5431 0103685  86.7144 341.7037 14.18014941868934"
      },
      "geometry": {
        "type": "Point",
        "coordinates": [
          -175.36404143304898,
          64.17167339018
        ]
      }
    },
    {
      "type": "Feature",
      "properties": {
        "norad_id": 34376,
        "name": "IRIDIUM 33 DEB",
        "group": "iridium-33-debris",
        "lat": 83.19801854471123,
        "lon": 147.5706468735216,
        "alt_km": 658.8316708329166,
        "timestamp": "2025-12-26T07:29:18.839351+00:00",
        "meta_object_name": "IRIDIUM 33 DEB",
        "meta_object_id": "1997-051FU",
        "meta_epoch": "2025-12-25T17:55:07.570560",
        "meta_mean_motion": 14.62744927,
        "meta_eccentricity": 0.00285719,
        "meta_inclination": 86.2988,
        "meta_ra_of_asc_node": 0.6918,
        "meta_arg_of_pericenter": 124.2341,
        "meta_mean_anomaly": 236.1583,
        "meta_ephemeris_type": 0,
        "meta_classification_type": "U",
        "meta_norad_cat_id": 34376,
        "meta_element_set_no": 999,
        "meta_rev_at_epoch": 88197,
        "meta_bstar": 0.0015826754,
        "meta_mean_motion_dot": 8.136e-05,
        "meta_mean_motion_ddot": 0,
        "tle_line1": "1 34376U 97051FU  25359.74661540  .00008136  00000+0  15827-2 0  9994",
        "tle_line2": "2 34376  86.2988   0.6918 0028571 124.2341 236.1583 14.62744927881977"
      },
      "geometry": {
        "type": "Point",
        "coordinates": [
          147.5706468735216,
          83.19801854471123
        ]
      }
    },
    {
      "type": "Feature",
      "properties": {
        "norad_id": 34486,
        "name": "IRIDIUM 33 DEB",
        "group": "iridium-33-debris",
        "lat": 35.95230657202126,
        "lon": -176.8659872991044,
        "alt_km": 572.456008334032,
        "timestamp": "2025-12-26T07:29:18.839362+00:00",
        "meta_object_name": "IRIDIUM 33 DEB",
        "meta_object_id": "1997-051GB",
        "meta_epoch": "2025-12-25T12:07:55.559424",
        "meta_mean_motion": 14.96371429,
        "meta_eccentricity": 0.0013919,
        "meta_inclination": 86.3932,
        "meta_ra_of_asc_node": 6.1286,
        "meta_arg_of_pericenter": 75.9543,
        "meta_mean_anomaly": 45.9427,
        "meta_ephemeris_type": 0,
        "meta_classification_type": "U",
        "meta_norad_cat_id": 34486,
        "meta_element_set_no": 999,
        "meta_rev_at_epoch": 89177,
        "meta_bstar": 0.002266,
        "meta_mean_motion_dot": 0.00025787,
        "meta_mean_motion_ddot": 0,
        "tle_line1": "1 34486U 97051GB  25359.50550416  .00025787  00000+0  22660-2 0  9993",
        "tle_line2": "2 34486  86.3932   6.1286 0013919  75.9543  45.9427 14.96371429891776"
      },
      "geometry": {
        "type": "Point",
        "coordinates": [
          -176.8659872991044,
          35.95230657202126
        ]
      }
    },
    {
      "type": "Feature",
      "properties": {
        "norad_id": 34487,
        "name": "IRIDIUM 33 DEB",
        "group": "iridium-33-debris",
        "lat": 79.58738468792343,
        "lon": 166.16574448177929,
        "alt_km": 717.5275345746795,
        "timestamp": "2025-12-26T07:29:18.839372+00:00",
        "meta_object_name": "IRIDIUM 33 DEB",
        "meta_object_id": "1997-051GC",
        "meta_epoch": "2025-12-25T01:19:57.963072",
        "meta_mean_motion": 14.43231551,
        "meta_eccentricity": 0.00332623,
        "meta_inclination": 86.3429,
        "meta_ra_of_asc_node": 7.0742,
        "meta_arg_of_pericenter": 90.1032,
        "meta_mean_anomaly": 325.4273,
        "meta_ephemeris_type": 0,
        "meta_classification_type": "U",
        "meta_norad_cat_id": 34487,
        "meta_element_set_no": 999,
        "meta_rev_at_epoch": 88426,
        "meta_bstar": 0.0001885437,
        "meta_mean_motion_dot": 6.59e-06,
        "meta_mean_motion_ddot": 0,
        "tle_line1": "1 34487U 97051GC  25359.05553198  .00000659  00000+0  18854-3 0  9996",
        "tle_line2": "2 34487  86.3429   7.0742 0033262  90.1032 325.4273 14.43231551884264"
      },
      "geometry": {
        "type": "Point",
        "coordinates": [
          166.16574448177929,
          79.58738468792343
        ]
      }
    },
    {
      "type": "Feature",
      "properties": {
        "norad_id": 34488,
        "name": "IRIDIUM 33 DEB",
        "group": "iridium-33-debris",
        "lat": 34.45910472071029,
        "lon": -58.39732149631444,
        "alt_km": 459.0976655552113,
        "timestamp": "2025-12-26T07:29:18.839383+00:00",
        "meta_object_name": "IRIDIUM 33 DEB",
        "meta_object_id": "1997-051GD",
        "meta_epoch": "2025-12-25T20:22:16.973184",
        "meta_mean_motion": 15.32823177,
        "meta_eccentricity": 0.00085439,
        "meta_inclination": 86.325,
        "meta_ra_of_asc_node": 299.3053,
        "meta_arg_of_pericenter": 30.257,
        "meta_mean_anomaly": 329.9171,
        "meta_ephemeris_type": 0,
        "meta_classification_type": "U",
        "meta_norad_cat_id": 34488,
        "meta_element_set_no": 999,
        "meta_rev_at_epoch": 89440,
        "meta_bstar": 0.0046585997,
        "meta_mean_motion_dot": 0.00150449,
        "meta_mean_motion_ddot": 0,
        "tle_line1": "1 34488U 97051GD  25359.84880756  .00150449  00000+0  46586-2 0  9992",
        "tle_line2": "2 34488  86.3250 299.3053 0008543  30.2570 329.9171 15.32823177894407"
      },
      "geometry": {
        "type": "Point",
        "coordinates": [
          -58.39732149631444,
          34.45910472071029
        ]
      }
    },
    {
      "type": "Feature",
      "properties": {
        "norad_id": 34492,
        "name": "IRIDIUM 33 DEB",
        "group": "iridium-33-debris",
        "lat": 59.759756784669925,
        "lon": -24.78490425677066,
        "alt_km": 892.6079448410019,
        "timestamp": "2025-12-26T07:29:18.839394+00:00",
        "meta_object_name": "IRIDIUM 33 DEB",
        "meta_object_id": "1997-051GH",
        "meta_epoch": "2025-12-24T21:39:21.521088",
        "meta_mean_motion": 14.25932668,
        "meta_eccentricity": 0.0188786,
        "meta_inclination": 86.473,
        "meta_ra_of_asc_node": 329.7114,
        "meta_arg_of_pericenter": 198.6425,
        "meta_mean_anomaly": 190.963,
        "meta_ephemeris_type": 0,
        "meta_classification_type": "U",
        "meta_norad_cat_id": 34492,
        "meta_element_set_no": 999,
        "meta_rev_at_epoch": 85232,
        "meta_bstar": 0.0029502,
        "meta_mean_motion_dot": 8.501e-05,
        "meta_mean_motion_ddot": 0,
        "tle_line1": "1 34492U 97051GH  25358.90233242  .00008501  00000+0  29502-2 0  9995",
        "tle_line2": "2 34492  86.4730 329.7114 0188786 198.6425 190.9630 14.25932668852326"
      },
      "geometry": {
        "type": "Point",
        "coordinates": [
          -24.78490425677066,
          59.759756784669925
        ]
      }
    }
  ]
}